NORAD_CAT_ID,OBJECT_NAME,OBJECT_TYPE,EPOCH,MEAN_MOTION,ECCENTRICITY,INCLINATION,RA_OF_ASC_NODE,ARG_OF_PERICENTER,MEAN_ANOMALY,BSTAR,MEAN_MOTION_DOT,MEAN_MOTION_DDOT,TLE_LINE0,TLE_LINE1,TLE_LINE2,SEMIMAJOR_AXIS,PERIOD,APOGEE,PERIGEE,DECAYED
51777.0,STARLINK-3625,PAYLOAD,2022-03-23 08:00:01,15.73233716,0.0001394,53.2168,16.4738,61.8667,52.9431,-0.00031493,-0.00044648,0.0,0 STARLINK-3625,1 51777U 22017K   22082.33334491 -.00044648  00000-0 -31493-3 0  9994,2 51777  53.2168  16.4738 0001394  61.8667  52.9431 15.73233716  5281,6727.799,91.531,350.602,348.726,0.0
51777.0,STARLINK-3625,PAYLOAD,2022-03-23 14:00:01,15.73182136,0.000133,53.217,15.2349,74.4537,17.0884,0.0002013,0.00027703,0.0,0 STARLINK-3625,1 51777U 22017K   22082.58334491  .00027703  00000-0  20130-3 0  9998,2 51777  53.2170  15.2349 0001330  74.4537  17.0884 15.73182136  3703,6727.946,91.534,350.706,348.916,0.0
51777.0,STARLINK-3625,PAYLOAD,2022-03-23 22:00:00,15.73230355,0.0001435,53.2173,13.5857,77.0337,103.4203,4.6545e-05,5.925e-05,0.0,0 STARLINK-3625,1 51777U 22017K   22082.91667824  .00005925  00000-0  46545-4 0  9995,2 51777  53.2173  13.5857 0001435  77.0337 103.4203 15.73230355  5371,6727.809,91.531,350.639,348.708,0.0
51777.0,STARLINK-3625,PAYLOAD,2022-03-24 14:00:01,15.73190143,0.0001330999999999,53.2171,10.2862,76.0656,282.3157,-2.7123e-05,-4.423e-05,0.0,0 STARLINK-3625,1 51777U 22017K   22083.58334491 -.00004423  00000-0 -27123-4 0  9995,2 51777  53.2171  10.2862 0001331  76.0656 282.3157 15.73190143  3684,6727.9230000000025,91.534,350.684,348.89300000000014,0.0
51777.0,STARLINK-3625,PAYLOAD,2022-03-24 22:00:00,15.73202514,0.0001446,53.217,8.6373,75.94800000000002,11.3346,0.00011792,0.00015962,0.0,0 STARLINK-3625,1 51777U 22017K   22083.91667824  .00015962  00000-0  11792-3 0  9993,2 51777  53.2170   8.6373 0001446  75.9480  11.3346 15.73202514  3700,6727.888000000001,91.533,350.726,348.78,0.0
51777.0,STARLINK-3625,PAYLOAD,2022-03-25 00:00:02,15.73203715,0.000145,53.2169,8.2254,72.6996,126.8822,0.00014227,0.00019396,0.0,0 STARLINK-3625,1 51777U 22017K   22084.00002315  .00019396  00000-0  14227-3 0  9993,2 51777  53.2169   8.2254 0001450  72.6996 126.8822 15.73203715  5542,6727.885,91.533,350.725,348.774,0.0
51777.0,STARLINK-3625,PAYLOAD,2022-03-25 12:00:00,15.73223968,0.000109,53.2166,5.7504,73.1697,79.7664,-0.00049394,-0.0006944,0.0,0 STARLINK-3625,1 51777U 22017K   22084.50001157 -.00069440  00000-0 -49394-3 0  9991,2 51777  53.2166   5.7504 0001090  73.1697  79.7664 15.73223968  5624,6727.8269999999975,91.532,350.425,348.959,0.0
51777.0,STARLINK-3625,PAYLOAD,2022-03-25 14:00:01,15.73197401,9.86e-05,53.2166,5.3376,75.5629,189.6139,-0.00022038,-0.00031428,0.0,0 STARLINK-3625,1 51777U 22017K   22084.58334491 -.00031428  00000-0 -22038-3 0  9990,2 51777  53.2166   5.3376 0000986  75.5629 189.6139 15.73197401  3696,6727.903,91.533,350.431,349.10400000000016,0.0
51777.0,STARLINK-3625,PAYLOAD,2022-03-25 20:00:01,15.7316772,9.46e-05,53.2169,4.1005,78.5303,163.3367,0.00029369,0.0004074,0.0,0 STARLINK-3625,1 51777U 22017K   22084.83334491  .00040740  00000-0  29369-3 0  9997,2 51777  53.2169   4.1005 0000946  78.5303 163.3367 15.73167720  5676,6727.986999999999,91.535,350.48900000000015,349.216,0.0
51777.0,STARLINK-3625,PAYLOAD,2022-03-25 22:00:01,15.73185426,9.38e-05,53.2169,3.6886,73.0232,281.1297,0.00010469,0.00014088,0.0,0 STARLINK-3625,1 51777U 22017K   22084.91668981  .00014088  00000-0  10469-3 0  9997,2 51777  53.2169   3.6886 0000938  73.0232 281.1297 15.73185426  3705,6727.937,91.534,350.43300000000005,349.171,0.0
51777.0,STARLINK-3625,PAYLOAD,2022-03-26 14:00:01,15.73155674,0.0001021,53.2168,0.3889,74.8524,97.105,0.0006458999999999,0.00090839,0.0,0 STARLINK-3625,1 51777U 22017K   22085.58334491  .00090839  00000-0  64590-3 0  9999,2 51777  53.2168   0.3889 0001021  74.8524  97.1050 15.73155674  5793,6728.022,91.536,350.5730000000001,349.2,0.0
51777.0,STARLINK-3625,PAYLOAD,2022-03-26 22:00:00,15.73246652,0.0001048,53.2168,358.7405,73.8309,187.0196,-0.00031899,-0.00045236,0.0,0 STARLINK-3625,1 51777U 22017K   22085.91667824 -.00045236  00000-0 -31899-3 0  9994,2 51777  53.2168 358.7405 0001048  73.8309 187.0196 15.73246652  3702,6727.762,91.53,350.332,348.922,0.0
51777.0,STARLINK-3625,PAYLOAD,2022-03-27 06:00:00,15.73169456,9.83e-05,53.2162,357.0922,60.125,289.689,0.00042183,0.00058919,0.0,0 STARLINK-3625,1 51777U 22017K   22086.25001157  .00058919  00000-0  42183-3 0  9991,2 51777  53.2162 357.0922 0000983  60.1250 289.6890 15.73169456  5903,6727.982,91.535,350.509,349.186,0.0
51777.0,STARLINK-3625,PAYLOAD,2022-03-27 14:00:01,15.73203914,0.0001107999999999,53.2172,355.4251,71.778,6.787999999999999,6.373300000000001e-06,2.75e-06,0.0,0 STARLINK-3625,1 51777U 22017K   22086.58334491  .00000275  00000-0  63733-5 0  9995,2 51777  53.2172 355.4251 0001108  71.7780   6.7880 15.73203914  5957,6727.884,91.533,350.494,349.004,0.0
51777.0,STARLINK-3625,PAYLOAD,2022-03-27 22:00:01,15.73143954,0.0001026,53.2171,353.7819,67.5646,100.2452,-0.0016722999999999,-0.00228495,0.0,0 STARLINK-3625,1 51777U 22017K   22086.91668981 -.00228495  00000-0 -16723-2 0  9998,2 51777  53.2171 353.7819 0001026  67.5646 100.2452 15.73143954  6009,6728.055,91.536,350.61,349.23,0.0
51777.0,STARLINK-3625,PAYLOAD,2022-03-28 08:00:01,15.73240771,0.0001171,53.2166,351.7305,70.3758,298.5638,-0.00023903,-0.00034088,0.0,0 STARLINK-3625,1 51777U 22017K   22087.33334491 -.00034088  00000-0 -23903-3 0  9993,2 51777  53.2166 351.7305 0001171  70.3758 298.5638 15.73240771  6077,6727.779,91.531,350.432,348.856,0.0
51777.0,STARLINK-3625,PAYLOAD,2022-03-28 14:00:01,15.73199984,0.0001067,53.2166,350.4918,81.7666,263.9727,4.0871e-05,5.12e-05,0.0,0 STARLINK-3625,1 51777U 22017K   22087.58335648  .00005120  00000-0  40871-4 0  9992,2 51777  53.2166 350.4918 0001067  81.7666 263.9727 15.73199984  3702,6727.895,91.533,350.478,349.042,0.0
51777.0,STARLINK-3625,PAYLOAD,2022-03-28 22:00:00,15.73256962,9.61e-05,53.2165,348.8438,72.8493,1.7573,-0.00065749,-0.0009211,0.0,0 STARLINK-3625,1 51777U 22017K   22087.91667824 -.00092110  00000-0 -65749-3 0  9990,2 51777  53.2165 348.8438 0000961  72.8493   1.7573 15.73256962  3684,6727.733,91.53,350.244,348.951,0.0
51777.0,STARLINK-3625,PAYLOAD,2022-03-29 14:00:01,15.73138755,0.0001034,53.2159,345.5435,85.331,167.1205,4.3986e-05,5.542e-05,0.0,0 STARLINK-3625,1 51777U 22017K   22088.58334491  .00005542  00000-0  43986-4 0  9996,2 51777  53.2159 345.5435 0001034  85.3310 167.1205 15.73138755  6262,6728.07,91.537,350.63,349.23900000000015,0.0
51777.0,STARLINK-3625,PAYLOAD,2022-03-29 22:00:00,15.73148057,0.0001197,53.2162,343.8957,80.0016,261.309,0.0002138,0.00029424,0.0,0 STARLINK-3625,1 51777U 22017K   22088.91667824  .00029424  00000-0  21380-3 0  9990,2 51777  53.2162 343.8957 0001197  80.0016 261.3090 15.73148057  3702,6728.043000000002,91.536,350.714,349.103,0.0
51777.0,STARLINK-3625,PAYLOAD,2022-03-30 00:00:00,15.73145881,0.00012,53.2161,343.4840000000001,76.3062,17.2207,0.00036214,0.00050391,0.0,0 STARLINK-3625,1 51777U 22017K   22089.00001157  .00050391  00000-0  36214-3 0  9991,2 51777  53.2161 343.4840 0001200  76.3062  17.2207 15.73145881  6334,6728.049,91.536,350.722,349.107,0.0
51777.0,STARLINK-3625,PAYLOAD,2022-03-30 14:00:01,15.73237979,0.0001190999999999,53.216,340.5955,85.4184,73.759,-0.00015283,-0.00022047,0.0,0 STARLINK-3625,1 51777U 22017K   22089.58335648 -.00022047  00000-0 -15283-3 0  9991,2 51777  53.2160 340.5955 0001191  85.4184  73.7590 15.73237979  3668,6727.7869999999975,91.531,350.45300000000015,348.851,0.0
51777.0,STARLINK-3625,PAYLOAD,2022-03-30 22:00:00,15.73205565,0.0001346,53.2158,338.9478,79.7585,168.3238,0.00013534,0.0001842,0.0,0 STARLINK-3625,1 51777U 22017K   22089.91667824  .00018420  00000-0  13534-3 0  9997,2 51777  53.2158 338.9478 0001346  79.7585 168.3238 15.73205565  3722,6727.879,91.533,350.65,348.839,0.0
51777.0,STARLINK-3625,PAYLOAD,2022-03-31 06:00:00,15.73245516,0.0001243,53.2151,337.2985,76.4936,260.5278,-0.00070563,-0.00098688,0.0,0 STARLINK-3625,1 51777U 22017K   22090.25001157 -.00098688  00000-0 -70563-3 0  9998,2 51777  53.2151 337.2985 0001243  76.4936 260.5278 15.73245516  6531,6727.765,91.531,350.467,348.7940000000001,0.0
51777.0,STARLINK-3625,PAYLOAD,2022-03-31 14:00:01,15.73128368,0.0001238,53.215,335.6468,91.5402,334.4355,0.00075832,0.00106839,0.0,0 STARLINK-3625,1 51777U 22017K   22090.58334491  .00106839  00000-0  75832-3 0  9994,2 51777  53.2150 335.6468 0001238  91.5402 334.4355 15.73128368  3694,6728.099,91.537,350.797,349.131,0.0
51777.0,STARLINK-3625,PAYLOAD,2022-03-31 22:00:00,15.73224633,0.0001239,53.2152,333.9993,83.6437,71.2481,0.00041668,0.00058327,0.0,0 STARLINK-3625,1 51777U 22017K   22090.91667824  .00058327  00000-0  41668-3 0  9998,2 51777  53.2152 333.9993 0001239  83.6437  71.2481 15.73224633  6636,6727.825,91.532,350.524,348.856,0.0
51777.0,STARLINK-3625,PAYLOAD,2022-04-01 14:00:01,15.73240357,0.0001159,53.2151,330.6981,90.3626,242.5502,-0.00018935,-0.00027154,0.0,0 STARLINK-3625,1 51777U 22017K   22091.58334491 -.00027154  00000-0 -18935-3 0  9990,2 51777  53.2151 330.6981 0001159  90.3626 242.5502 15.73240357  6742,6727.78,91.531,350.425,348.865,0.0
51777.0,STARLINK-3625,PAYLOAD,2022-04-01 22:00:00,15.73240442,0.0001168,53.2149,329.0505,81.3033,340.5787,-0.00091673,-0.00127563,0.0,0 STARLINK-3625,1 51777U 22017K   22091.91667824 -.00127563  00000-0 -91673-3 0  9991,2 51777  53.2149 329.0505 0001168  81.3033 340.5787 15.73240442  3673,6727.78,91.531,350.431,348.8590000000001,0.0
51777.0,STARLINK-3625,PAYLOAD,2022-04-02 06:00:00,15.73165968,0.0001001,53.2138,327.4008,79.3642,71.4401,-0.0006114,-0.00085432,0.0,0 STARLINK-3625,1 51777U 22017K   22092.25001157 -.00085432  00000-0 -61140-3 0  9994,2 51777  53.2138 327.4008 0001001  79.3642  71.4401 15.73165968  6844,6727.9919999999975,91.535,350.531,349.184,0.0
